[{"OBJECT_NAME":"HAWK-A","OBJECT_ID":"2018-099H","EPOCH":"2026-03-09T16:13:51.062880","MEAN_MOTION":15.23231043,"ECCENTRICITY":0.00342596,"INCLINATION":97.4051,"RA_OF_ASC_NODE":122.2425,"ARG_OF_PERICENTER":275.5523,"MEAN_ANOMALY":84.1807,"EPHEMERIS_TYPE":0,"CLASSIFICATION_TYPE":"U","NORAD_CAT_ID":43765,"ELEMENT_SET_NO":999,"REV_AT_EPOCH":39794,"BSTAR":0.00036104215,"MEAN_MOTION_DOT":8.617e-5,"MEAN_MOTION_DDOT":0},{"OBJECT_NAME":"STARLINK-35547","OBJECT_ID":"2025-237F","EPOCH":"2026-03-09T05:51:20.794752","MEAN_MOTION":15.30197249,"ECCENTRICITY":0.00012505,"INCLINATION":53.162,"RA_OF_ASC_NODE":41.6006,"ARG_OF_PERICENTER":92.6754,"MEAN_ANOMALY":267.439,"EPHEMERIS_TYPE":0,"CLASSIFICATION_TYPE":"U","NORAD_CAT_ID":66119,"ELEMENT_SET_NO":999,"REV_AT_EPOCH":2254,"BSTAR":0.00054465027,"MEAN_MOTION_DOT":0.00015805,"MEAN_MOTION_DDOT":0}]
